IRIDIUM 155             
1 43573U 18061E   19240.44485190  .00000052  00000-0  11515-4 0  9993
2 43573  86.3996  15.0925 0002148 111.8424 248.3000 14.34217083 57229
IRIDIUM 154             
1 43574U 18061F   19240.42580878  .00000050  00000-0  10963-4 0  9995
2 43574  86.4001  15.1165 0002079  84.4131 275.7302 14.34218827 57268
IRIDIUM 163             
1 43575U 18061G   19240.47655145  .00000055  00000-0  12452-4 0  9991
2 43575  86.3997  15.0859 0002859  87.5417 272.6106 14.34216435 57247
IRIDIUM 156             
1 43576U 18061H   19240.45119322  .00000049  00000-0  10262-4 0  9992
2 43576  86.3998  15.1009 0002553  98.8872 261.2613 14.34216964 57220
IRIDIUM 164             
1 43577U 18061J   19240.43215888  .00000046  00000-0  93498-5 0  9995
2 43577  86.3999  15.1115 0002237  86.5118 273.6334 14.34217720 57279
IRIDIUM 159             
1 43578U 18061K   19240.47020361  .00000053  00000-0  11703-4 0  9996
2 43578  86.3997  15.0846 0002134  87.7898 272.3542 14.34218757 57247
IRIDIUM 180             
1 43922U 19002A   19240.67902491  .00000051  00000-0  11282-4 0  9990
2 43922  86.3981 311.8414 0002661  63.1966 296.9502 14.34216770 32929
IRIDIUM 176             
1 43923U 19002B   19240.66736856  .00000101  00000-0  12173-4 0  9996
2 43923  86.6115 311.8644 0002741  91.8681 268.2850 14.72251160 33707
IRIDIUM 168             
1 43924U 19002C   19240.67268063  .00000044  00000-0  87354-5 0  9998
2 43924  86.3983 311.8509 0002174  84.2042 275.9402 14.34217323 32860
IRIDIUM 173             
1 43925U 19002D   19240.65999493  .00000058  00000-0  13780-4 0  9991
2 43925  86.3979 311.8459 0002246  88.5383 271.6070 14.34218190 32851
IRIDIUM 169             
1 43926U 19002E   19240.65055655  .00000069  00000-0  16271-4 0  9995
2 43926  87.4075 335.2524 0001902 172.3151 187.8078 14.38626580 33023
IRIDIUM 172             
1 43927U 19002F   19240.65364469  .00000056  00000-0  12853-4 0  9990
2 43927  86.3980 311.8487 0002260  83.0900 277.0553 14.34216969 32855
IRIDIUM 175             
1 43928U 19002G   19240.66114751  .00000094  00000-0  10943-4 0  9999
2 43928  86.6096 311.8163 0002087 115.8681 244.2751 14.72247143 33694
IRIDIUM 171             
1 43929U 19002H   19240.63461352  .00000050  00000-0  10790-4 0  9991
2 43929  86.3990 311.8868 0002139  85.1892 274.9548 14.34219102 32840
IRIDIUM 170             
1 43930U 19002J   19240.67353971  .00000103  00000-0  12411-4 0  9995
2 43930  86.6115 311.8693 0002694  98.9683 261.1839 14.72251154 33719
IRIDIUM 167             
1 43931U 19002K   19240.62827402  .00000054  00000-0  12384-4 0  9990
2 43931  86.3981 311.8600 0002492  64.7695 295.3759 14.34218762 32845
